NORAD_CAT_ID,OBJECT_NAME,OBJECT_TYPE,EPOCH,MEAN_MOTION,ECCENTRICITY,INCLINATION,RA_OF_ASC_NODE,ARG_OF_PERICENTER,MEAN_ANOMALY,BSTAR,MEAN_MOTION_DOT,MEAN_MOTION_DDOT,TLE_LINE0,TLE_LINE1,TLE_LINE2,SEMIMAJOR_AXIS,PERIOD,APOGEE,PERIGEE,DECAYED
49422.0,STARLINK-3161,PAYLOAD,2023-02-05 19:51:36,15.08833839,0.0001373,53.2102,252.2984,91.4762,268.6387,-1.7538e-05,-5.67e-06,0.0,0 STARLINK-3161,1 49422U 21104Q   23036.82750907 -.00000567  00000-0 -17538-4 0  9999,2 49422  53.2102 252.2984 0001373  91.4762 268.6387 15.08833839 69453,6917.899,95.438,540.714,538.814,0.0
49422.0,STARLINK-3161,PAYLOAD,2023-02-05 21:26:59,15.08833695,0.0001351,53.2101,252.001,91.5495,268.5652,-2.566e-05,-6.96e-06,0.0,0 STARLINK-3161,1 49422U 21104Q   23036.89374894 -.00000696  00000-0 -25660-4 0  9991,2 49422  53.2101 252.0010 0001351  91.5495 268.5652 15.08833695 68363,6917.9,95.438,540.699,538.83,0.0
49422.0,STARLINK-3161,PAYLOAD,2023-02-06 11:45:28,15.08841299,0.0001369,53.2104,249.324,96.2066,263.9082,2.82e-05,1.61e-06,0.0,0 STARLINK-3161,1 49422U 21104Q   23037.48990849  .00000161  00000-0  28200-4 0  9999,2 49422  53.2104 249.3240 0001369  96.2066 263.9082 15.08841299 68450,6917.876,95.437,540.688,538.794,0.0
49422.0,STARLINK-3161,PAYLOAD,2023-02-06 21:17:46,15.08847996,0.0001355,53.2105,247.5398,95.2875,264.8272,0.00016535,2.345e-05,0.0,0 STARLINK-3161,1 49422U 21104Q   23037.88734546  .00002345  00000-0  16535-3 0  9996,2 49422  53.2105 247.5398 0001355  95.2875 264.8272 15.08847996 69617,6917.856,95.437,540.658,538.784,0.0
49422.0,STARLINK-3161,PAYLOAD,2023-02-07 13:11:38,15.0883879,0.0001316,53.2116,244.5661,99.0383,261.0758,0.00015497,2.179e-05,0.0,0 STARLINK-3161,1 49422U 21104Q   23038.54974932  .00002179  00000-0  15497-3 0  9996,2 49422  53.2116 244.5661 0001316  99.0383 261.0758 15.08838790 69713,6917.884,95.438,540.659,538.839,0.0
49422.0,STARLINK-3161,PAYLOAD,2023-02-07 21:08:33,15.08843924,0.0001209,53.212,243.0784,91.8476,268.2654,0.00020026,2.901e-05,0.0,0 STARLINK-3161,1 49422U 21104Q   23038.88094652  .00002901  00000-0  20026-3 0  9992,2 49422  53.2120 243.0784 0001209  91.8476 268.2654 15.08843924 68664,6917.868,95.437,540.57,538.897,0.0
49422.0,STARLINK-3161,PAYLOAD,2023-02-08 13:02:25,15.08836473,0.0001357,53.2121,240.1046,113.1558,246.9578,3.8602e-05,3.26e-06,0.0,0 STARLINK-3161,1 49422U 21104Q   23039.54335105  .00000326  00000-0  38602-4 0  9996,2 49422  53.2121 240.1046 0001357 113.1558 246.9578 15.08836473 68767,6917.891,95.438,540.695,538.817,0.0
49422.0,STARLINK-3161,PAYLOAD,2023-02-08 19:23:58,15.08838492,0.0001468,53.2132,238.9151,120.2819,239.8319,6.892e-05,8.09e-06,0.0,0 STARLINK-3161,1 49422U 21104Q   23039.80831168  .00000809  00000-0  68920-4 0  9997,2 49422  53.2132 238.9151 0001468 120.2819 239.8319 15.08838492 69907,6917.885,95.438,540.766,538.734,0.0
49422.0,STARLINK-3161,PAYLOAD,2023-02-09 09:42:26,15.08834269,7.59e-05,53.2133,236.2382,125.9375,234.1688,0.00013963,1.935e-05,0.0,0 STARLINK-3161,1 49422U 21104Q   23040.40447223  .00001935  00000-0  13963-3 0  9997,2 49422  53.2133 236.2382 0000759 125.9375 234.1688 15.08834269 68898,6917.898,95.438,540.288,539.238,0.0
49422.0,STARLINK-3161,PAYLOAD,2023-02-09 19:14:45,15.08837611,0.0001734,53.2132,234.4538,123.7612,236.3546,9.6284e-05,1.245e-05,0.0,0 STARLINK-3161,1 49422U 21104Q   23040.80191229  .00001245  00000-0  96284-4 0  9995,2 49422  53.2132 234.4538 0001734 123.7612 236.3546 15.08837611 68952,6917.888,95.438,540.952,538.553,0.0
49422.0,STARLINK-3161,PAYLOAD,2023-02-10 14:19:22,15.08837566,0.000119,53.2131,230.8858,85.1789,274.9338,0.00015944,2.25e-05,0.0,0 STARLINK-3161,1 49422U 21104Q   23041.59679178  .00002250  00000-0  15944-3 0  9996,2 49422  53.2131 230.8858 0001190  85.1789 274.9338 15.08837566 70171,6917.888,95.438,540.576,538.93,0.0
49422.0,STARLINK-3161,PAYLOAD,2023-02-10 15:54:45,15.08838611,0.0001192,53.2132,230.5884,84.7178,275.395,0.0001634,2.314e-05,0.0,0 STARLINK-3161,1 49422U 21104Q   23041.66303130  .00002314  00000-0  16340-3 0  9998,2 49422  53.2132 230.5884 0001192  84.7178 275.3950 15.08838611 69082,6917.885,95.438,540.574,538.925,0.0
49422.0,STARLINK-3161,PAYLOAD,2023-02-11 07:48:37,15.08837698,0.0001228,53.2132,227.6161,73.9186,286.1942,8.9618e-05,1.139e-05,0.0,0 STARLINK-3161,1 49422U 21104Q   23042.32543372  .00001139  00000-0  89618-4 0  9999,2 49422  53.2132 227.6161 0001228  73.9186 286.1942 15.08837698 69182,6917.887,95.438,540.602,538.903,0.0
49422.0,STARLINK-3161,PAYLOAD,2023-02-11 18:56:19,15.08839802,0.0001006,53.2135,225.5334,85.0263,275.0844,7.5101e-05,9.08e-06,0.0,0 STARLINK-3161,1 49422U 21104Q   23042.78911241  .00000908  00000-0  75101-4 0  9998,2 49422  53.2135 225.5334 0001006  85.0263 275.0844 15.08839802 70356,6917.881,95.438,540.442,539.05,0.0
49422.0,STARLINK-3161,PAYLOAD,2023-02-12 12:25:34,15.08834135,9.93e-05,53.2135,222.2624,87.3953,272.7152,-5.5972e-06,-3.77e-06,0.0,0 STARLINK-3161,1 49422U 21104Q   23043.51775875 -.00000377  00000-0 -55972-5 0  9998,2 49422  53.2135 222.2624 0000993  87.3953 272.7152 15.08834135 70469,6917.898,95.438,540.45,539.076,0.0
49422.0,STARLINK-3161,PAYLOAD,2023-02-12 18:47:06,15.08840818,0.0001237,53.2136,221.0724,94.4527,265.6606,4.847e-05,4.84e-06,0.0,0 STARLINK-3161,1 49422U 21104Q   23043.78271328  .00000484  00000-0  48470-4 0  9992,2 49422  53.2136 221.0724 0001237  94.4527 265.6606 15.08840818 70501,6917.878,95.438,540.599,538.887,0.0
49422.0,STARLINK-3161,PAYLOAD,2023-02-13 10:40:58,15.08831001,9.55e-05,53.2141,218.0989,93.7342,266.3759,2.5461e-05,1.17e-06,0.0,0 STARLINK-3161,1 49422U 21104Q   23044.44512124  .00000117  00000-0  25461-4 0  9996,2 49422  53.2141 218.0989 0000955  93.7342 266.3759 15.08831001 70601,6917.908,95.438,540.434,539.112,0.0
49422.0,STARLINK-3161,PAYLOAD,2023-02-13 18:37:53,15.0883965,9.2e-05,53.2134,216.6122,90.4011,269.7086,9.8364e-05,1.278e-05,0.0,0 STARLINK-3161,1 49422U 21104Q   23044.77631498  .00001278  00000-0  98364-4 0  9999,2 49422  53.2134 216.6122 0000920  90.4011 269.7086 15.08839650 70658,6917.881,95.438,540.383,539.11,0.0
49422.0,STARLINK-3161,PAYLOAD,2023-02-14 04:10:12,15.08838129,9.19e-05,53.2129,214.8289,91.202,268.9078,7.5897e-05,9.2e-06,0.0,0 STARLINK-3161,1 49422U 21104Q   23045.17375753  .00000920  00000-0  75897-4 0  9992,2 49422  53.2129 214.8289 0000919  91.2020 268.9078 15.08838129 69619,6917.886,95.438,540.387,539.115,0.0
49422.0,STARLINK-3161,PAYLOAD,2023-02-15 04:00:59,15.08837356,8.49e-05,53.2131,210.3678,93.5727,266.5362,0.00012522,1.706e-05,0.0,0 STARLINK-3161,1 49422U 21104Q   23046.16735848  .00001706  00000-0  12522-3 0  9995,2 49422  53.2131 210.3678 0000849  93.5727 266.5362 15.08837356 70866,6917.888,95.438,540.341,539.166,0.0
49422.0,STARLINK-3161,PAYLOAD,2023-02-15 10:22:32,15.08836922,9.54e-05,53.2141,209.1783,90.1335,269.9766,0.00011698,1.574e-05,0.0,0 STARLINK-3161,1 49422U 21104Q   23046.43231912  .00001574  00000-0  11698-3 0  9994,2 49422  53.2141 209.1783 0000954  90.1335 269.9766 15.08836922 69800,6917.89,95.438,540.415,539.095,0.0
49422.0,STARLINK-3161,PAYLOAD,2023-02-16 10:13:18,15.08850073,9.87e-05,53.2144,204.7176,85.3538,274.7567,0.00011327,1.516e-05,0.0,0 STARLINK-3161,1 49422U 21104Q   23047.42590756  .00001516  00000-0  11327-3 0  9993,2 49422  53.2144 204.7176 0000987  85.3538 274.7567 15.08850073 69959,6917.85,95.437,540.397,539.032,0.0
49422.0,STARLINK-3161,PAYLOAD,2023-02-16 16:34:51,15.08849981,0.0001527,53.2142,203.527,86.7826,273.3341,0.00014687,2.051e-05,0.0,0 STARLINK-3161,1 49422U 21104Q   23047.69086919  .00002051  00000-0  14687-3 0  9990,2 49422  53.2142 203.5270 0001527  86.7826 273.3341 15.08849981 71094,6917.85,95.437,540.771,538.659,0.0
49422.0,STARLINK-3161,PAYLOAD,2023-02-17 13:14:56,15.08808679,0.0002548,53.2103,199.6586,102.7236,257.4041,-0.00022733,-3.902e-05,0.0,0 STARLINK-3161,1 49422U 21104Q   23048.55203720 -.00003902  00000-0 -22733-3 0  9996,2 49422  53.2103 199.6586 0002548 102.7236 257.4041 15.08808679 71228,6917.976,95.44,541.604,538.078,0.0
49422.0,STARLINK-3161,PAYLOAD,2023-02-17 16:25:40,15.08835002,0.0001466,53.2143,199.0664,94.264,265.8519,1.9889e-05,2.9e-07,0.0,0 STARLINK-3161,1 49422U 21104Q   23048.68449625  .00000029  00000-0  19889-4 0  9990,2 49422  53.2143 199.0664 0001466  94.2640 265.8519 15.08835002 71240,6917.896,95.438,540.775,538.747,0.0
49422.0,STARLINK-3161,PAYLOAD,2023-02-18 19:27:10,15.08867135,0.0001031,53.2149,194.0101,80.9234,279.1875,0.00024122,3.556e-05,0.0,0 STARLINK-3161,1 49422U 21104Q   23049.81054238  .00003556  00000-0  24122-3 0  9991,2 49422  53.2149 194.0101 0001031  80.9234 279.1875 15.08867135 71410,6917.797,95.436,540.376,538.949,0.0
49422.0,STARLINK-3161,PAYLOAD,2023-02-19 14:31:50,15.08847527,0.0001549,53.2144,190.442,95.2506,264.8663,1.3856e-05,-6.7e-07,0.0,0 STARLINK-3161,1 49422U 21104Q   23050.60544831 -.00000067  00000-0  13856-4 0  9991,2 49422  53.2144 190.4420 0001549  95.2506 264.8663 15.08847527 70434,6917.857,95.437,540.794,538.651,0.0
49422.0,STARLINK-3161,PAYLOAD,2023-02-19 16:07:13,15.08848166,0.00014,53.2144,190.1456,84.9133,275.2019,2.609e-05,1.27e-06,0.0,0 STARLINK-3161,1 49422U 21104Q   23050.67168760  .00000127  00000-0  26090-4 0  9991,2 49422  53.2144 190.1456 0001400  84.9133 275.2019 15.08848166 71541,6917.855,95.437,540.689,538.752,0.0
49422.0,STARLINK-3161,PAYLOAD,2023-02-20 14:22:37,15.08851917,0.0001486,53.2155,185.9815,83.955,276.1611,-0.00015485,-2.752e-05,0.0,0 STARLINK-3161,1 49422U 21104Q   23051.59904443 -.00002752  00000-0 -15485-3 0  9992,2 49422  53.2155 185.9815 0001486  83.9550 276.1611 15.08851917 70589,6917.844,95.437,540.737,538.681,0.0
49422.0,STARLINK-3161,PAYLOAD,2023-02-20 17:33:23,15.08856294,0.0001434,53.2171,185.3902,87.9062,272.2094,-9.289e-05,-1.767e-05,0.0,0 STARLINK-3161,1 49422U 21104Q   23051.73151981 -.00001767  00000-0 -92890-4 0  9990,2 49422  53.2171 185.3902 0001434  87.9062 272.2094 15.08856294 71703,6917.831,95.437,540.688,538.704,0.0
